$$SOE
2459580.500000000, A.D. 2022-Jan-01 00:00:00.0000, 6.589170638219673E+09, 5.894367502477875E+08, -2.995137044588221E+08,
2459587.500000000, A.D. 2022-Jan-08 00:00:00.0000, 6.588928957430170E+09, 5.921566971977516E+08, -2.996740151379405E+08,
2459594.500000000, A.D. 2022-Jan-15 00:00:00.0000, 6.588686092873916E+09, 5.948765603429340E+08, -2.998342740608643E+08,
2459601.500000000, A.D. 2022-Jan-22 00:00:00.0000, 6.588442048509992E+09, 5.975963377331423E+08, -2.999944815769530E+08,
2459608.500000000, A.D. 2022-Jan-29 00:00:00.0000, 6.588196828876727E+09, 6.003160298945866E+08, -3.001546379284445E+08,
2459615.500000000, A.D. 2022-Feb-05 00:00:00.0000, 6.587950436884627E+09, 6.030356391582112E+08, -3.003147431026899E+08,
2459622.500000000, A.D. 2022-Feb-12 00:00:00.0000, 6.587702873782615E+09, 6.057551679197797E+08, -3.004747969694350E+08,
2459629.500000000, A.D. 2022-Feb-19 00:00:00.0000, 6.587454139972821E+09, 6.084746182007109E+08, -3.006347993881457E+08,
2459636.500000000, A.D. 2022-Feb-26 00:00:00.0000, 6.587204235362549E+09, 6.111939917866752E+08, -3.007947502243636E+08,
2459643.500000000, A.D. 2022-Mar-05 00:00:00.0000, 6.586953159412690E+09, 6.139132903270727E+08, -3.009546493403625E+08,
2459650.500000000, A.D. 2022-Mar-12 00:00:00.0000, 6.586700911104408E+09, 6.166325153297637E+08, -3.011144965861119E+08,
2459657.500000000, A.D. 2022-Mar-19 00:00:00.0000, 6.586447488895146E+09, 6.193516680792334E+08, -3.012742917950756E+08,
2459664.500000000, A.D. 2022-Mar-26 00:00:00.0000, 6.586192890686378E+09, 6.220707494724376E+08, -3.014340347876729E+08,
2459671.500000000, A.D. 2022-Apr-02 00:00:00.0000, 6.585937113870876E+09, 6.247897597167140E+08, -3.015937253934533E+08,
2459678.500000000, A.D. 2022-Apr-09 00:00:00.0000, 6.585680155731571E+09, 6.275086978948146E+08, -3.017533635167648E+08,
2459685.500000000, A.D. 2022-Apr-16 00:00:00.0000, 6.585422014549145E+09, 6.302275620513572E+08, -3.019129492254077E+08,
2459692.500000000, A.D. 2022-Apr-23 00:00:00.0000, 6.585162690149454E+09, 6.329463508851508E+08, -3.020724826574126E+08,
2459699.500000000, A.D. 2022-Apr-30 00:00:00.0000, 6.584902182020656E+09, 6.356650648022908E+08, -3.022319637579782E+08,
2459706.500000000, A.D. 2022-May-07 00:00:00.0000, 6.584640488062758E+09, 6.383837043565725E+08, -3.023913922888364E+08,
2459713.500000000, A.D. 2022-May-14 00:00:00.0000, 6.584377605358978E+09, 6.411022691155115E+08, -3.025507679892454E+08,
2459720.500000000, A.D. 2022-May-21 00:00:00.0000, 6.584113530937832E+09, 6.438207577107610E+08, -3.027100906403104E+08,
2459727.500000000, A.D. 2022-May-28 00:00:00.0000, 6.583848262047151E+09, 6.465391681142297E+08, -3.028693600670545E+08,
2459734.500000000, A.D. 2022-Jun-04 00:00:00.0000, 6.583581796217164E+09, 6.492574978271744E+08, -3.030285761291941E+08,
2459741.500000000, A.D. 2022-Jun-11 00:00:00.0000, 6.583314131257328E+09, 6.519757439845998E+08, -3.031877387136701E+08,
2459748.500000000, A.D. 2022-Jun-18 00:00:00.0000, 6.583045265225647E+09, 6.546939033884463E+08, -3.033468477313389E+08,
2459755.500000000, A.D. 2022-Jun-25 00:00:00.0000, 6.582775196399958E+09, 6.574119724366279E+08, -3.035059031231532E+08,
2459762.500000000, A.D. 2022-Jul-02 00:00:00.0000, 6.582503923385242E+09, 6.601299468824295E+08, -3.036649048933970E+08,
2459769.500000000, A.D. 2022-Jul-09 00:00:00.0000, 6.582231445747313E+09, 6.628478216014652E+08, -3.038238531911834E+08,
2459776.500000000, A.D. 2022-Jul-16 00:00:00.0000, 6.581957765117648E+09, 6.655655914491689E+08, -3.039827483465133E+08,
2459783.500000000, A.D. 2022-Jul-23 00:00:00.0000, 6.581682884571096E+09, 6.682832532866323E+08, -3.041415906527097E+08,
2459790.500000000, A.D. 2022-Jul-30 00:00:00.0000, 6.581406806360429E+09, 6.710008058209053E+08, -3.043003801768113E+08,
2459797.500000000, A.D. 2022-Aug-06 00:00:00.0000, 6.581129531606591E+09, 6.737182479079076E+08, -3.044591168748337E+08,
2459804.500000000, A.D. 2022-Aug-13 00:00:00.0000, 6.580851061121421E+09, 6.764355780723987E+08, -3.046178007110447E+08,
2459811.500000000, A.D. 2022-Aug-20 00:00:00.0000, 6.580571395793484E+09, 6.791527947416154E+08, -3.047764316782039E+08,
2459818.500000000, A.D. 2022-Aug-27 00:00:00.0000, 6.580290536605198E+09, 6.818698964660075E+08, -3.049350097841583E+08,
2459825.500000000, A.D. 2022-Sep-03 00:00:00.0000, 6.580008484529134E+09, 6.845868820165262E+08, -3.050935350363885E+08,
2459832.500000000, A.D. 2022-Sep-10 00:00:00.0000, 6.579725240393622E+09, 6.873037503823849E+08, -3.052520074306847E+08,
2459839.500000000, A.D. 2022-Sep-17 00:00:00.0000, 6.579440804747064E+09, 6.900205006675532E+08, -3.054104269467451E+08,
2459846.500000000, A.D. 2022-Sep-24 00:00:00.0000, 6.579155177781368E+09, 6.927371318351053E+08, -3.055687935604191E+08,
2459853.500000000, A.D. 2022-Oct-01 00:00:00.0000, 6.578868359554535E+09, 6.954536422771304E+08, -3.057271072965475E+08,
2459860.500000000, A.D. 2022-Oct-08 00:00:00.0000, 6.578580350919643E+09, 6.981700297322702E+08, -3.058853683172730E+08,
2459867.500000000, A.D. 2022-Oct-15 00:00:00.0000, 6.578291154228430E+09, 7.008862927500798E+08, -3.060435768625898E+08,
2459874.500000000, A.D. 2022-Oct-22 00:00:00.0000, 6.578000771627874E+09, 7.036024320183122E+08, -3.062017329809013E+08,
2459881.500000000, A.D. 2022-Oct-29 00:00:00.0000, 6.577709203447595E+09, 7.063184489596429E+08, -3.063598364909247E+08,
2459888.500000000, A.D. 2022-Nov-05 00:00:00.0000, 6.577416448777380E+09, 7.090343443389763E+08, -3.065178871437679E+08,
2459895.500000000, A.D. 2022-Nov-12 00:00:00.0000, 6.577122506270020E+09, 7.117501181485630E+08, -3.066758847016361E+08,
2459902.500000000, A.D. 2022-Nov-19 00:00:00.0000, 6.576827374450075E+09, 7.144657698168133E+08, -3.068338289453512E+08,
2459909.500000000, A.D. 2022-Nov-26 00:00:00.0000, 6.576531051790805E+09, 7.171812983434744E+08, -3.069917196673529E+08,
2459916.500000000, A.D. 2022-Dec-03 00:00:00.0000, 6.576233536725243E+09, 7.198967023496433E+08, -3.071495566664494E+08,
2459923.500000000, A.D. 2022-Dec-10 00:00:00.0000, 6.575934827637022E+09, 7.226119800613101E+08, -3.073073397470195E+08,
2459930.500000000, A.D. 2022-Dec-17 00:00:00.0000, 6.575634922855602E+09, 7.253271292014343E+08, -3.074650687269843E+08,
2459937.500000000, A.D. 2022-Dec-24 00:00:00.0000, 6.575333820765312E+09, 7.280421467247242E+08, -3.076227434699439E+08,
2459944.500000000, A.D. 2022-Dec-31 00:00:00.0000, 6.575031520385857E+09, 7.307570285026274E+08, -3.077803639654539E+08,
2459951.500000000, A.D. 2023-Jan-07 00:00:00.0000, 6.574728022546968E+09, 7.334717699209237E+08, -3.079379303899963E+08,
2459958.500000000, A.D. 2023-Jan-14 00:00:00.0000, 6.574423329690228E+09, 7.361863678867342E+08, -3.080954429275541E+08,
2459965.500000000, A.D. 2023-Jan-21 00:00:00.0000, 6.574117443653264E+09, 7.389008210723081E+08, -3.082529015498491E+08,
2459972.500000000, A.D. 2023-Jan-28 00:00:00.0000, 6.573810365104362E+09, 7.416151282000893E+08, -3.084103061085859E+08,
2459979.500000000, A.D. 2023-Feb-04 00:00:00.0000, 6.573502094418925E+09, 7.443292873968190E+08, -3.085676564730690E+08,
2459986.500000000, A.D. 2023-Feb-11 00:00:00.0000, 6.573192632202563E+09, 7.470432964231294E+08, -3.087249525642415E+08,
2459993.500000000, A.D. 2023-Feb-18 00:00:00.0000, 6.572881979397648E+09, 7.497571529555917E+08, -3.088821943465036E+08,
2460000.500000000, A.D. 2023-Feb-25 00:00:00.0000, 6.572570137236210E+09, 7.524708547596071E+08, -3.090393818144973E+08,
2460007.500000000, A.D. 2023-Mar-04 00:00:00.0000, 6.572257107141567E+09, 7.551843997721695E+08, -3.091965149825348E+08,
2460014.500000000, A.D. 2023-Mar-11 00:00:00.0000, 6.571942890607450E+09, 7.578977860952456E+08, -3.093535938790695E+08,
2460021.500000000, A.D. 2023-Mar-18 00:00:00.0000, 6.571627489101934E+09, 7.606110118505431E+08, -3.095106185543651E+08,
2460028.500000000, A.D. 2023-Mar-25 00:00:00.0000, 6.571310904199640E+09, 7.633240748486965E+08, -3.096675891236461E+08,
2460035.500000000, A.D. 2023-Apr-01 00:00:00.0000, 6.570993138366945E+09, 7.660369724665020E+08, -3.098245058523031E+08,
2460042.500000000, A.D. 2023-Apr-08 00:00:00.0000, 6.570674195784948E+09, 7.687497029573759E+08, -3.099813691263971E+08,
2460049.500000000, A.D. 2023-Apr-15 00:00:00.0000, 6.570354080873314E+09, 7.714622670890410E+08, -3.101381791843243E+08,
2460056.500000000, A.D. 2023-Apr-22 00:00:00.0000, 6.570032796324257E+09, 7.741746670565962E+08, -3.102949360248844E+08,
2460063.500000000, A.D. 2023-Apr-29 00:00:00.0000, 6.569710343381786E+09, 7.768869049239346E+08, -3.104516395584702E+08,
2460070.500000000, A.D. 2023-May-06 00:00:00.0000, 6.569386722606025E+09, 7.795989823747466E+08, -3.106082896943960E+08,
2460077.500000000, A.D. 2023-May-13 00:00:00.0000, 6.569061934145863E+09, 7.823109008796685E+08, -3.107648863478961E+08,
2460084.500000000, A.D. 2023-May-20 00:00:00.0000, 6.568735977754115E+09, 7.850226617885814E+08, -3.109214294285774E+08,
2460091.500000000, A.D. 2023-May-27 00:00:00.0000, 6.568408852738689E+09, 7.877342663187042E+08, -3.110779188307126E+08,
2460098.500000000, A.D. 2023-Jun-03 00:00:00.0000, 6.568080557907361E+09, 7.904457154645408E+08, -3.112343544287992E+08,
2460105.500000000, A.D. 2023-Jun-10 00:00:00.0000, 6.567751091529953E+09, 7.931570098159809E+08, -3.113907360819761E+08,
2460112.500000000, A.D. 2023-Jun-17 00:00:00.0000, 6.567420451406938E+09, 7.958681492245109E+08, -3.115470636606483E+08,
2460119.500000000, A.D. 2023-Jun-24 00:00:00.0000, 6.567088635364475E+09, 7.985791323732054E+08, -3.117033371203820E+08,
2460126.500000000, A.D. 2023-Jul-01 00:00:00.0000, 6.566755642429012E+09, 8.012899570786514E+08, -3.118595565788280E+08,
2460133.500000000, A.D. 2023-Jul-08 00:00:00.0000, 6.566421473007463E+09, 8.040006221469223E+08, -3.120157221751235E+08,
2460140.500000000, A.D. 2023-Jul-15 00:00:00.0000, 6.566086126796221E+09, 8.067111279538591E+08, -3.121718338260394E+08,
2460147.500000000, A.D. 2023-Jul-22 00:00:00.0000, 6.565749601940365E+09, 8.094214747152983E+08, -3.123278912864928E+08,
$$EOE